[
  {
    "OBJECT_NAME": "FENGYUN 3E",
    "OBJECT_ID": "2021-062A",
    "EPOCH": "2025-05-31T21:33:50.639328",
    "MEAN_MOTION": 14.19865761,
    "ECCENTRICITY": 0.0002755,
    "INCLINATION": 98.7416,
    "RA_OF_ASC_NODE": 154.733,
    "ARG_OF_PERICENTER": 100.5713,
    "MEAN_ANOMALY": 259.5774,
    "EPHEMERIS_TYPE": 0,
    "CLASSIFICATION_TYPE": "U",
    "NORAD_CAT_ID": 49008,
    "ELEMENT_SET_NO": 999,
    "REV_AT_EPOCH": 20247,
    "BSTAR": 2.7116e-05,
    "MEAN_MOTION_DOT": 1.4e-07,
    "MEAN_MOTION_DDOT": 0
  },
  {
    "OBJECT_NAME": "GOES 18",
    "OBJECT_ID": "2022-021A",
    "EPOCH": "2025-05-31T13:23:24.509184",
    "MEAN_MOTION": 1.00272596,
    "ECCENTRICITY": 1.5e-05,
    "INCLINATION": 0.0352,
    "RA_OF_ASC_NODE": 137.4918,
    "ARG_OF_PERICENTER": 11.6266,
    "MEAN_ANOMALY": 164.0295,
    "EPHEMERIS_TYPE": 0,
    "CLASSIFICATION_TYPE": "U",
    "NORAD_CAT_ID": 51850,
    "ELEMENT_SET_NO": 999,
    "REV_AT_EPOCH": 1197,
    "BSTAR": 0,
    "MEAN_MOTION_DOT": 9.1e-07,
    "MEAN_MOTION_DDOT": 0
  },
  {
    "OBJECT_NAME": "NOAA 21 (JPSS-2)",
    "OBJECT_ID": "2022-150A",
    "EPOCH": "2025-05-31T20:28:54.350112",
    "MEAN_MOTION": 14.19535546,
    "ECCENTRICITY": 0.0001544,
    "INCLINATION": 98.7269,
    "RA_OF_ASC_NODE": 90.853,
    "ARG_OF_PERICENTER": 155.8608,
    "MEAN_ANOMALY": 204.264,
    "EPHEMERIS_TYPE": 0,
    "CLASSIFICATION_TYPE": "U",
    "NORAD_CAT_ID": 54234,
    "ELEMENT_SET_NO": 999,
    "REV_AT_EPOCH": 13244,
    "BSTAR": 6.7077e-05,
    "MEAN_MOTION_DOT": 9.8e-07,
    "MEAN_MOTION_DDOT": 0
  },
  {
    "OBJECT_NAME": "METEOSAT-12 (MTG-I1)",
    "OBJECT_ID": "2022-170C",
    "EPOCH": "2025-05-31T09:43:38.828064",
    "MEAN_MOTION": 1.00270544,
    "ECCENTRICITY": 8.69e-05,
    "INCLINATION": 0.6433,
    "RA_OF_ASC_NODE": 31.8832,
    "ARG_OF_PERICENTER": 40.3513,
    "MEAN_ANOMALY": 322.4963,
    "EPHEMERIS_TYPE": 0,
    "CLASSIFICATION_TYPE": "U",
    "NORAD_CAT_ID": 54743,
    "ELEMENT_SET_NO": 999,
    "REV_AT_EPOCH": 914,
    "BSTAR": 0,
    "MEAN_MOTION_DOT": -1.3e-07,
    "MEAN_MOTION_DDOT": 0
  },
  {
    "OBJECT_NAME": "TIANMU-1 03",
    "OBJECT_ID": "2023-039A",
    "EPOCH": "2025-05-31T19:57:24.805440",
    "MEAN_MOTION": 15.35079038,
    "ECCENTRICITY": 0.000451,
    "INCLINATION": 97.5005,
    "RA_OF_ASC_NODE": 310.2239,
    "ARG_OF_PERICENTER": 48.7191,
    "MEAN_ANOMALY": 311.444,
    "EPHEMERIS_TYPE": 0,
    "CLASSIFICATION_TYPE": "U",
    "NORAD_CAT_ID": 55973,
    "ELEMENT_SET_NO": 999,
    "REV_AT_EPOCH": 12211,
    "BSTAR": 0.00029956,
    "MEAN_MOTION_DOT": 0.0001012,
    "MEAN_MOTION_DDOT": 0
  },
  {
    "OBJECT_NAME": "TIANMU-1 04",
    "OBJECT_ID": "2023-039B",
    "EPOCH": "2025-05-31T20:17:27.208320",
    "MEAN_MOTION": 15.35311304,
    "ECCENTRICITY": 0.0005216,
    "INCLINATION": 97.4933,
    "RA_OF_ASC_NODE": 309.5328,
    "ARG_OF_PERICENTER": 42.3374,
    "MEAN_ANOMALY": 317.8271,
    "EPHEMERIS_TYPE": 0,
    "CLASSIFICATION_TYPE": "U",
    "NORAD_CAT_ID": 55974,
    "ELEMENT_SET_NO": 999,
    "REV_AT_EPOCH": 12211,
    "BSTAR": 0.00032011,
    "MEAN_MOTION_DOT": 0.00010902,
    "MEAN_MOTION_DDOT": 0
  },
  {
    "OBJECT_NAME": "TIANMU-1 05",
    "OBJECT_ID": "2023-039C",
    "EPOCH": "2025-05-31T19:13:37.598304",
    "MEAN_MOTION": 15.35053482,
    "ECCENTRICITY": 0.0004734,
    "INCLINATION": 97.498,
    "RA_OF_ASC_NODE": 309.948,
    "ARG_OF_PERICENTER": 67.3341,
    "MEAN_ANOMALY": 292.8403,
    "EPHEMERIS_TYPE": 0,
    "CLASSIFICATION_TYPE": "U",
    "NORAD_CAT_ID": 55975,
    "ELEMENT_SET_NO": 999,
    "REV_AT_EPOCH": 12209,
    "BSTAR": 0.00030408,
    "MEAN_MOTION_DOT": 0.00010266,
    "MEAN_MOTION_DDOT": 0
  },
  {
    "OBJECT_NAME": "TIANMU-1 06",
    "OBJECT_ID": "2023-039D",
    "EPOCH": "2025-05-31T20:33:22.940928",
    "MEAN_MOTION": 15.35391384,
    "ECCENTRICITY": 0.0005022,
    "INCLINATION": 97.4993,
    "RA_OF_ASC_NODE": 310.3239,
    "ARG_OF_PERICENTER": 61.5247,
    "MEAN_ANOMALY": 298.6501,
    "EPHEMERIS_TYPE": 0,
    "CLASSIFICATION_TYPE": "U",
    "NORAD_CAT_ID": 55976,
    "ELEMENT_SET_NO": 999,
    "REV_AT_EPOCH": 12211,
    "BSTAR": 0.00031357,
    "MEAN_MOTION_DOT": 0.00010705,
    "MEAN_MOTION_DDOT": 0
  },
  {
    "OBJECT_NAME": "METEOR-M2 3",
    "OBJECT_ID": "2023-091A",
    "EPOCH": "2025-05-31T20:23:11.802624",
    "MEAN_MOTION": 14.23999449,
    "ECCENTRICITY": 0.0003837,
    "INCLINATION": 98.6616,
    "RA_OF_ASC_NODE": 208.4669,
    "ARG_OF_PERICENTER": 181.47,
    "MEAN_ANOMALY": 178.6468,
    "EPHEMERIS_TYPE": 0,
    "CLASSIFICATION_TYPE": "U",
    "NORAD_CAT_ID": 57166,
    "ELEMENT_SET_NO": 999,
    "REV_AT_EPOCH": 10024,
    "BSTAR": 2.0105e-05,
    "MEAN_MOTION_DOT": 2e-08,
    "MEAN_MOTION_DDOT": 0
  },
  {
    "OBJECT_NAME": "TIANMU-1 07",
    "OBJECT_ID": "2023-101A",
    "EPOCH": "2025-05-31T19:33:14.808672",
    "MEAN_MOTION": 15.2499701,
    "ECCENTRICITY": 0.0005611,
    "INCLINATION": 97.3108,
    "RA_OF_ASC_NODE": 206.0965,
    "ARG_OF_PERICENTER": 62.6598,
    "MEAN_ANOMALY": 297.5211,
    "EPHEMERIS_TYPE": 0,
    "CLASSIFICATION_TYPE": "U",
    "NORAD_CAT_ID": 57399,
    "ELEMENT_SET_NO": 999,
    "REV_AT_EPOCH": 10342,
    "BSTAR": 0.00024193,
    "MEAN_MOTION_DOT": 5.968e-05,
    "MEAN_MOTION_DDOT": 0
  },
  {
    "OBJECT_NAME": "TIANMU-1 08",
    "OBJECT_ID": "2023-101B",
    "EPOCH": "2025-05-31T20:19:07.676832",
    "MEAN_MOTION": 15.25001048,
    "ECCENTRICITY": 0.0007697,
    "INCLINATION": 97.3098,
    "RA_OF_ASC_NODE": 205.9567,
    "ARG_OF_PERICENTER": 61.8349,
    "MEAN_ANOMALY": 298.3666,
    "EPHEMERIS_TYPE": 0,
    "CLASSIFICATION_TYPE": "U",
    "NORAD_CAT_ID": 57400,
    "ELEMENT_SET_NO": 999,
    "REV_AT_EPOCH": 10342,
    "BSTAR": 0.00023584,
    "MEAN_MOTION_DOT": 5.819e-05,
    "MEAN_MOTION_DDOT": 0
  },
  {
    "OBJECT_NAME": "TIANMU-1 09",
    "OBJECT_ID": "2023-101C",
    "EPOCH": "2025-05-31T21:29:23.713440",
    "MEAN_MOTION": 15.24933551,
    "ECCENTRICITY": 0.0006885,
    "INCLINATION": 97.3052,
    "RA_OF_ASC_NODE": 205.6398,
    "ARG_OF_PERICENTER": 62.7463,
    "MEAN_ANOMALY": 297.4476,
    "EPHEMERIS_TYPE": 0,
    "CLASSIFICATION_TYPE": "U",
    "NORAD_CAT_ID": 57401,
    "ELEMENT_SET_NO": 999,
    "REV_AT_EPOCH": 10343,
    "BSTAR": 0.00025222,
    "MEAN_MOTION_DOT": 6.215e-05,
    "MEAN_MOTION_DDOT": 0
  },
  {
    "OBJECT_NAME": "TIANMU-1 10",
    "OBJECT_ID": "2023-101D",
    "EPOCH": "2025-05-31T20:41:45.356928",
    "MEAN_MOTION": 15.24916547,
    "ECCENTRICITY": 0.0008721,
    "INCLINATION": 97.3133,
    "RA_OF_ASC_NODE": 206.2523,
    "ARG_OF_PERICENTER": 60.1938,
    "MEAN_ANOMALY": 300.0166,
    "EPHEMERIS_TYPE": 0,
    "CLASSIFICATION_TYPE": "U",
    "NORAD_CAT_ID": 57402,
    "ELEMENT_SET_NO": 999,
    "REV_AT_EPOCH": 10342,
    "BSTAR": 0.00023758,
    "MEAN_MOTION_DOT": 5.907e-05,
    "MEAN_MOTION_DDOT": 7.0255e-09
  },
  {
    "OBJECT_NAME": "FENGYUN 3F",
    "OBJECT_ID": "2023-111A",
    "EPOCH": "2025-05-31T19:43:25.213440",
    "MEAN_MOTION": 14.20043181,
    "ECCENTRICITY": 0.0001674,
    "INCLINATION": 98.7272,
    "RA_OF_ASC_NODE": 223.0016,
    "ARG_OF_PERICENTER": 124.0299,
    "MEAN_ANOMALY": 236.1037,
    "EPHEMERIS_TYPE": 0,
    "CLASSIFICATION_TYPE": "U",
    "NORAD_CAT_ID": 57490,
    "ELEMENT_SET_NO": 999,
    "REV_AT_EPOCH": 9474,
    "BSTAR": 5.7586e-05,
    "MEAN_MOTION_DOT": 7.9e-07,
    "MEAN_MOTION_DDOT": 0
  }
]