FENGYUN 3E              
1 49008U 21062A   25151.89850277  .00000014  00000+0  27116-4 0  9997
2 49008  98.7416 154.7330 0002755 100.5713 259.5774 14.19865761202479
GOES 18                 
1 51850U 22021A   25151.55792256  .00000091  00000+0  00000+0 0  9999
2 51850   0.0352 137.4918 0000150  11.6266 164.0295  1.00272596 11979
NOAA 21 (JPSS-2)        
1 54234U 22150A   25151.85340683  .00000098  00000+0  67077-4 0  9996
2 54234  98.7269  90.8530 0001544 155.8608 204.2640 14.19535546132448
METEOSAT-12 (MTG-I1)    
1 54743U 22170C   25151.40531051 -.00000013  00000+0  00000+0 0  9991
2 54743   0.6433  31.8832 0000869  40.3513 322.4963  1.00270544  9141
TIANMU-1 03             
1 55973U 23039A   25151.83153710  .00010120  00000+0  29956-3 0  9995
2 55973  97.5005 310.2239 0004510  48.7191 311.4440 15.35079038122112
TIANMU-1 04             
1 55974U 23039B   25151.84545380  .00010902  00000+0  32011-3 0  9999
2 55974  97.4933 309.5328 0005216  42.3374 317.8271 15.35311304122116
TIANMU-1 05             
1 55975U 23039C   25151.80112961  .00010266  00000+0  30408-3 0  9992
2 55975  97.4980 309.9480 0004734  67.3341 292.8403 15.35053482122093
TIANMU-1 06             
1 55976U 23039D   25151.85651552  .00010705  00000+0  31357-3 0  9994
2 55976  97.4993 310.3239 0005022  61.5247 298.6501 15.35391384122110
METEOR-M2 3             
1 57166U 23091A   25151.84944216  .00000002  00000+0  20105-4 0  9995
2 57166  98.6616 208.4669 0003837 181.4700 178.6468 14.23999449100241
TIANMU-1 07             
1 57399U 23101A   25151.81475473  .00005968  00000+0  24193-3 0  9992
2 57399  97.3108 206.0965 0005611  62.6598 297.5211 15.24997010103425
TIANMU-1 08             
1 57400U 23101B   25151.84661663  .00005819  00000+0  23584-3 0  9994
2 57400  97.3098 205.9567 0007697  61.8349 298.3666 15.25001048103424
TIANMU-1 09             
1 57401U 23101C   25151.89541335  .00006215  00000+0  25222-3 0  9995
2 57401  97.3052 205.6398 0006885  62.7463 297.4476 15.24933551103431
TIANMU-1 10             
1 57402U 23101D   25151.86233052  .00005907  70255-8  23758-3 0  9994
2 57402  97.3133 206.2523 0008721  60.1938 300.0166 15.24916547103421
FENGYUN 3F              
1 57490U 23111A   25151.82181960  .00000079  00000+0  57586-4 0  9992
2 57490  98.7272 223.0016 0001674 124.0299 236.1037 14.20043181 94741
